[{"OBJECT_NAME":"YAOGAN-43 01G","OBJECT_ID":"2024-148G","EPOCH":"2026-03-09T10:38:37.087584","MEAN_MOTION":15.28332833,"ECCENTRICITY":0.00073829,"INCLINATION":35.0006,"RA_OF_ASC_NODE":62.0013,"ARG_OF_PERICENTER":306.3543,"MEAN_ANOMALY":53.6492,"EPHEMERIS_TYPE":0,"CLASSIFICATION_TYPE":"U","NORAD_CAT_ID":60464,"ELEMENT_SET_NO":999,"REV_AT_EPOCH":8700,"BSTAR":0.00035872736,"MEAN_MOTION_DOT":0.00010133,"MEAN_MOTION_DDOT":0},{"OBJECT_NAME":"STARLINK-34592","OBJECT_ID":"2025-144Y","EPOCH":"2026-03-09T12:37:00.459264","MEAN_MOTION":15.30213038,"ECCENTRICITY":0.00014384,"INCLINATION":53.1605,"RA_OF_ASC_NODE":169.2442,"ARG_OF_PERICENTER":152.0048,"MEAN_ANOMALY":208.103,"EPHEMERIS_TYPE":0,"CLASSIFICATION_TYPE":"U","NORAD_CAT_ID":64746,"ELEMENT_SET_NO":999,"REV_AT_EPOCH":3986,"BSTAR":0.00083033596,"MEAN_MOTION_DOT":0.00024323,"MEAN_MOTION_DDOT":0}]
